OBJECT_NAME,OBJECT_ID,EPOCH,MEAN_MOTION,ECCENTRICITY,INCLINATION,RA_OF_ASC_NODE,ARG_OF_PERICENTER,MEAN_ANOMALY,EPHEMERIS_TYPE,CLASSIFICATION_TYPE,NORAD_CAT_ID,ELEMENT_SET_NO,REV_AT_EPOCH,BSTAR,MEAN_MOTION_DOT,MEAN_MOTION_DDOT
SAUDISAT 2,2004-025F,2026-06-22T05:59:02.685696,14.56686187,.00234606,98.5507,173.3621,281.8761,77.9805,0,U,28371,999,16648,.49541273E-4,.172E-5,0
COSMOS 2407,2004-028A,2026-06-22T05:43:23.852064,13.76335086,.0037968,82.9607,71.0932,237.3148,238.0020,0,U,28380,999,10057,.2637526E-4,.41E-6,0
COSMOS 2414,2005-002A,2026-06-22T08:48:16.303968,13.87926750,.00391551,82.9496,39.7282,316.2048,43.6011,0,U,28521,999,8453,.7510978E-5,.24E-6,0
INMARSAT 4-F1,2005-009A,2026-06-22T18:43:03.944928,1.00272485,.00027514,5.1759,42.7751,48.3194,278.7361,0,U,28628,999,7772,0,.32E-6,0
SJ-7,2005-024A,2026-06-22T11:35:48.036768,15.21609694,.00157907,97.7286,203.7293,20.3128,339.8732,0,U,28737,999,14883,.27483922E-3,.615E-4,0
CUBESAT XI-V,2005-043F,2026-06-22T16:51:27.785088,14.72643296,.00140275,98.2990,329.4398,182.9407,177.1719,0,U,28895,999,10256,.16368491E-3,.991E-5,0
HINODE (SOLAR-B),2006-041A,2026-06-22T11:59:29.474016,14.68628677,.00159385,98.0544,189.5739,271.3379,88.6001,0,U,29479,999,5565,.88902873E-4,.468E-5,0
SHIJIAN-6 02B (SJ-6 02B),2006-046B,2026-06-22T19:28:22.329120,15.01387861,.00154363,97.7160,202.8357,44.5331,315.7131,0,U,29506,999,7158,.71812441E-4,.867E-5,0
DMSP 5D-3 F17 (USA 191),2006-050A,2026-06-22T19:50:18.179520,14.14993469,.00109708,98.7378,180.2814,44.7773,315.4284,0,U,29522,999,1322,.22993654E-4,.1E-7,0
LAPAN-TUBSAT,2007-001A,2026-06-22T20:14:29.777280,14.85956405,.00123608,98.1350,173.1951,160.5982,199.5705,0,U,29709,999,5199,.69477833E-4,.549E-5,0
HAIYANG-1B,2007-010A,2026-06-22T16:02:38.527008,14.31028017,.00133904,98.3497,155.3012,179.7808,180.3384,0,U,31113,999,142,.38661114E-4,.6E-6,0
COSMO-SKYMED 2,2007-059A,2026-06-22T19:57:58.233600,14.82158715,.000133,97.8888,357.3479,89.5984,270.5382,0,U,32376,999,284,.41869534E-4,.281E-5,0
CARTOSAT-2A,2008-021A,2026-06-22T19:06:33.523776,14.79244912,.00133089,97.7629,222.3137,92.3387,267.9348,0,U,32783,999,97963,.36678711E-4,.223E-5,0
CUTE-1.7+APD II (CO-65),2008-021C,2026-06-22T19:36:38.352384,15.09498177,.00092702,97.8280,155.3526,21.9068,338.2554,0,U,32785,999,98604,.25978203E-3,.4099E-4,0
SEEDS II (CO-66),2008-021J,2026-06-22T10:09:34.349472,15.32901579,.00003707,97.7527,171.5713,315.0344,45.0867,0,U,32791,999,98809,.43973648E-3,.13901E-3,0
YUBILEINY (RS30),2008-025A,2026-06-22T19:29:51.726336,12.43179500,.00186578,82.5048,351.9401,300.9406,58.9840,0,U,32953,999,82039,-.1965979E-4,.7E-7,0
FENGYUN 3A,2008-026A,2026-06-22T13:04:52.041792,14.19571999,.00097525,98.6884,114.2781,109.8026,250.4202,0,U,32958,999,93616,.33986507E-4,.28E-6,0
HUANJING 1A (HJ-1A),2008-041A,2026-06-22T19:55:31.437408,14.83994819,.00203166,97.6689,159.4502,117.2741,243.0546,0,U,33320,999,95924,.6038646E-4,.453E-5,0
HUANJING 1B (HJ-1B),2008-041B,2026-06-22T20:51:49.483008,14.83326262,.00365926,97.6525,162.6425,162.2828,197.9672,0,U,33321,999,95925,.14753422E-3,.117E-4,0
SHIJIAN-6 03A (SJ-6 03A),2008-053A,2026-06-22T20:27:50.906592,15.17206645,.00111543,97.8410,207.3706,1.6746,358.4522,0,U,33408,999,96382,.15051666E-3,.2922E-4,0
SHIJIAN-6 03B (SJ-6 03B),2008-053B,2026-06-22T19:41:12.501312,15.04311585,.0020126,97.8563,193.8053,25.9962,334.2270,0,U,33409,999,96359,.26245526E-4,.302E-5,0
