SAUDISAT 2              
1 28371U 04025F   26173.24933664  .00000172  00000+0  49541-4 0  9994
2 28371  98.5507 173.3621 0023460 281.8761  77.9805 14.56686187166481
COSMOS 2407             
1 28380U 04028A   26173.23847051  .00000041  00000+0  26375-4 0  9995
2 28380  82.9607  71.0932 0037968 237.3148 238.0020 13.76335086100578
COSMOS 2414             
1 28521U 05002A   26173.36685537  .00000024  00000+0  75110-5 0  9991
2 28521  82.9496  39.7282 0039155 316.2048  43.6011 13.87926750 84539
INMARSAT 4-F1           
1 28628U 05009A   26173.77990677  .00000032  00000+0  00000+0 0  9994
2 28628   5.1759  42.7751 0002751  48.3194 278.7361  1.00272485 77721
SJ-7                    
1 28737U 05024A   26173.48319487  .00006150  00000+0  27484-3 0  9990
2 28737  97.7286 203.7293 0015790  20.3128 339.8732 15.21609694148834
CUBESAT XI-V            
1 28895U 05043F   26173.70240492  .00000991  00000+0  16368-3 0  9996
2 28895  98.2990 329.4398 0014027 182.9407 177.1719 14.72643296102565
HINODE (SOLAR-B)        
1 29479U 06041A   26173.49964669  .00000468  00000+0  88903-4 0  9993
2 29479  98.0544 189.5739 0015938 271.3379  88.6001 14.68628677 55652
SHIJIAN-6 02B (SJ-6 02B)
1 29506U 06046B   26173.81136955  .00000867  00000+0  71812-4 0  9998
2 29506  97.7160 202.8357 0015436  44.5331 315.7131 15.01387861 71582
DMSP 5D-3 F17 (USA 191) 
1 29522U 06050A   26173.82659930  .00000001  00000+0  22994-4 0  9992
2 29522  98.7378 180.2814 0010970  44.7773 315.4284 14.14993469 13222
LAPAN-TUBSAT            
1 29709U 07001A   26173.84340020  .00000549  00000+0  69478-4 0  9990
2 29709  98.1350 173.1951 0012360 160.5982 199.5705 14.85956405 51992
HAIYANG-1B              
1 31113U 07010A   26173.66850147  .00000060  00000+0  38661-4 0  9996
2 31113  98.3497 155.3012 0013390 179.7808 180.3384 14.31028017  1425
COSMO-SKYMED 2          
1 32376U 07059A   26173.83192400  .00000281  00000+0  41870-4 0  9992
2 32376  97.8888 357.3479 0001330  89.5984 270.5382 14.82158715  2842
CARTOSAT-2A             
1 32783U 08021A   26173.79622134  .00000223  00000+0  36679-4 0  9998
2 32783  97.7629 222.3137 0013308  92.3387 267.9348 14.79244912979638
CUTE-1.7+APD II (CO-65) 
1 32785U 08021C   26173.81711056  .00004099  00000+0  25978-3 0  9999
2 32785  97.8280 155.3526 0009270  21.9068 338.2554 15.09498177986040
SEEDS II (CO-66)        
1 32791U 08021J   26173.42331423  .00013901  00000+0  43974-3 0  9997
2 32791  97.7527 171.5713 0000370 315.0344  45.0867 15.32901579988092
YUBILEINY (RS30)        
1 32953U 08025A   26173.81240424  .00000007  00000+0 -19660-4 0  9994
2 32953  82.5048 351.9401 0018657 300.9406  58.9840 12.43179500820391
FENGYUN 3A              
1 32958U 08026A   26173.54504678  .00000028  00000+0  33987-4 0  9994
2 32958  98.6884 114.2781 0009752 109.8026 250.4202 14.19571999936160
HUANJING 1A (HJ-1A)     
1 33320U 08041A   26173.83022497  .00000453  00000+0  60386-4 0  9996
2 33320  97.6689 159.4502 0020316 117.2741 243.0546 14.83994819959248
HUANJING 1B (HJ-1B)     
1 33321U 08041B   26173.86932272  .00001170  00000+0  14753-3 0  9994
2 33321  97.6525 162.6425 0036592 162.2828 197.9672 14.83326262959256
SHIJIAN-6 03A (SJ-6 03A)
1 33408U 08053A   26173.85267253  .00002922  00000+0  15052-3 0  9991
2 33408  97.8410 207.3706 0011154   1.6746 358.4522 15.17206645963824
SHIJIAN-6 03B (SJ-6 03B)
1 33409U 08053B   26173.82028358  .00000302  00000+0  26246-4 0  9998
2 33409  97.8563 193.8053 0020126  25.9962 334.2270 15.04311585963598
